{"type": "FeatureCollection", "features": [ {"type": "Feature", "properties": {"norad_id": 36048, "name": "COSMOS 2251 DEB", "group": "cosmos-2251-debris", "lat": 51.21581599388443, "lon": 72.95176403624296, "alt_km": 779.1039169754767, "timestamp": "2025-12-26T14:28:48.100174+00:00", "meta": {"OBJECT_NAME": "COSMOS 2251 DEB", "OBJECT_ID": "1993-036AXK", "EPOCH": "2025-12-25T19:47:51.613152", "MEAN_MOTION": 14.37873513, "ECCENTRICITY": 0.00271039, "INCLINATION": 74.0571, "RA_OF_ASC_NODE": 275.2209, "ARG_OF_PERICENTER": 322.8373, "MEAN_ANOMALY": 95.0442, "EPHEMERIS_TYPE": 0, "CLASSIFICATION_TYPE": "U", "NORAD_CAT_ID": 36048, "ELEMENT_SET_NO": 999, "REV_AT_EPOCH": 85690, "BSTAR": 0.00026808417, "MEAN_MOTION_DOT": 7.86e-06, "MEAN_MOTION_DDOT": 0}, "tle": {"line1": "1 36048U 93036AXK 25359.82490293  .00000786  00000+0  26808-3 0  9990", "line2": "2 36048  74.0571 275.2209 0027103 322.8373  95.0442 14.37873513856909"}}, "geometry": {"type": "Point", "coordinates": [72.95176403624296, 51.21581599388443]}}, {"type": "Feature", "properties": {"norad_id": 36049, "name": "COSMOS 2251 DEB", "group": "cosmos-2251-debris", "lat": 6.372260838023508, "lon": 94.45953711512348, "alt_km": 694.4672593756604, "timestamp": "2025-12-26T14:28:48.100184+00:00", "meta": {"OBJECT_NAME": "COSMOS 2251 DEB", "OBJECT_ID": "1993-036AXL", "EPOCH": "2025-12-24T16:28:33.256992", "MEAN_MOTION": 14.62291602, "ECCENTRICITY": 0.00099539, "INCLINATION": 74.0314, "RA_OF_ASC_NODE": 96.2976, "ARG_OF_PERICENTER": 184.7355, "MEAN_ANOMALY": 175.3719, "EPHEMERIS_TYPE": 0, "CLASSIFICATION_TYPE": "U", "NORAD_CAT_ID": 36049, "ELEMENT_SET_NO": 999, "REV_AT_EPOCH": 85539, "BSTAR": 0.0013226671, "MEAN_MOTION_DOT": 6.656e-05, "MEAN_MOTION_DDOT": 0}, "tle": {"line1": "1 36049U 93036AXL 25358.68649603  .00006656  00000+0  13227-2 0  9997", "line2": "2 36049  74.0314  96.2976 0009953 184.7355 175.3719 14.62291602855397"}}, "geometry": {"type": "Point", "coordinates": [94.45953711512348, 6.372260838023508]}}, {"type": "Feature", "properties": {"norad_id": 36050, "name": "COSMOS 2251 DEB", "group": "cosmos-2251-debris", "lat": -35.692585557017225, "lon": -2.34001676488387, "alt_km": 513.3184948629669, "timestamp": "2025-12-26T14:28:48.100194+00:00", "meta": {"OBJECT_NAME": "COSMOS 2251 DEB", "OBJECT_ID": "1993-036AXM", "EPOCH": "2025-12-23T18:20:06.375552", "MEAN_MOTION": 15.01191833, "ECCENTRICITY": 0.00883826, "INCLINATION": 74.0302, "RA_OF_ASC_NODE": 171.57, "ARG_OF_PERICENTER": 248.7055, "MEAN_ANOMALY": 110.468, "EPHEMERIS_TYPE": 0, "CLASSIFICATION_TYPE": "U", "NORAD_CAT_ID": 36050, "ELEMENT_SET_NO": 999, "REV_AT_EPOCH": 67200, "BSTAR": 0.00066513085, "MEAN_MOTION_DOT": 9.246e-05, "MEAN_MOTION_DDOT": 0}, "tle": {"line1": "1 36050U 93036AXM 25357.76396268  .00009246  00000+0  66513-3 0  9998", "line2": "2 36050  74.0302 171.5700 0088382 248.7055 110.4680 15.01191833672000"}}, "geometry": {"type": "Point", "coordinates": [-2.34001676488387, -35.692585557017225]}}, {"type": "Feature", "properties": {"norad_id": 36053, "name": "COSMOS 2251 DEB", "group": "cosmos-2251-debris", "lat": 72.22038715365838, "lon": -118.39817141698447, "alt_km": 673.9663923813714, "timestamp": "2025-12-26T14:28:48.100204+00:00", "meta": {"OBJECT_NAME": "COSMOS 2251 DEB", "OBJECT_ID": "1993-036AXQ", "EPOCH": "2025-12-26T00:51:23.527872", "MEAN_MOTION": 14.57338547, "ECCENTRICITY": 0.00324806, "INCLINATION": 73.8704, "RA_OF_ASC_NODE": 127.1707, "ARG_OF_PERICENTER": 71.5947, "MEAN_ANOMALY": 288.8743, "EPHEMERIS_TYPE": 0, "CLASSIFICATION_TYPE": "U", "NORAD_CAT_ID": 36053, "ELEMENT_SET_NO": 999, "REV_AT_EPOCH": 87638, "BSTAR": 0.0014377554, "MEAN_MOTION_DOT": 6.535e-05, "MEAN_MOTION_DDOT": 0}, "tle": {"line1": "1 36053U 93036AXQ 25360.03568898  .00006535  00000+0  14378-2 0  9994", "line2": "2 36053  73.8704 127.1707 0032480  71.5947 288.8743 14.57338547876382"}}, "geometry": {"type": "Point", "coordinates": [-118.39817141698447, 72.22038715365838]}}, {"type": "Feature", "properties": {"norad_id": 36058, "name": "COSMOS 2251 DEB", "group": "cosmos-2251-debris", "lat": -59.36056352947579, "lon": -21.886187526834696, "alt_km": 733.0824414550552, "timestamp": "2025-12-26T14:28:48.100214+00:00", "meta": {"OBJECT_NAME": "COSMOS 2251 DEB", "OBJECT_ID": "1993-036AXV", "EPOCH": "2025-12-20T18:52:04.818432", "MEAN_MOTION": 14.58726339, "ECCENTRICITY": 0.00440828, "INCLINATION": 74.0229, "RA_OF_ASC_NODE": 18.1226, "ARG_OF_PERICENTER": 150.2394, "MEAN_ANOMALY": 210.1292, "EPHEMERIS_TYPE": 0, "CLASSIFICATION_TYPE": "U", "NORAD_CAT_ID": 36058, "ELEMENT_SET_NO": 999, "REV_AT_EPOCH": 66228, "BSTAR": 0.0002931852, "MEAN_MOTION_DOT": 1.357e-05, "MEAN_MOTION_DDOT": 0}, "tle": {"line1": "1 36058U 93036AXV 25354.78616688  .00001357  00000+0  29319-3 0  9994", "line2": "2 36058  74.0229  18.1226 0044082 150.2394 210.1292 14.58726339662289"}}, "geometry": {"type": "Point", "coordinates": [-21.886187526834696, -59.36056352947579]}}, {"type": "Feature", "properties": {"norad_id": 36060, "name": "COSMOS 2251 DEB", "group": "cosmos-2251-debris", "lat": 73.56061946034741, "lon": -75.05259083347799, "alt_km": 753.1772323021341, "timestamp": "2025-12-26T14:28:48.100224+00:00", "meta": {"OBJECT_NAME": "COSMOS 2251 DEB", "OBJECT_ID": "1993-036AXX", "EPOCH": "2025-12-24T20:27:25.953408", "MEAN_MOTION": 14.42023746, "ECCENTRICITY": 0.0015617, "INCLINATION": 74.0276, "RA_OF_ASC_NODE": 212.1036, "ARG_OF_PERICENTER": 307.841, "MEAN_ANOMALY": 52.1332, "EPHEMERIS_TYPE": 0, "CLASSIFICATION_TYPE": "U", "NORAD_CAT_ID": 36060, "ELEMENT_SET_NO": 999, "REV_AT_EPOCH": 85184, "BSTAR": 0.00026955178, "MEAN_MOTION_DOT": 8.59e-06, "MEAN_MOTION_DDOT": 0}, "tle": {"line1": "1 36060U 93036AXX 25358.85238372  .00000859  00000+0  26955-3 0  9998", "line2": "2 36060  74.0276 212.1036 0015617 307.8410  52.1332 14.42023746851846"}}, "geometry": {"type": "Point", "coordinates": [-75.05259083347799, 73.56061946034741]}}, {"type": "Feature", "properties": {"norad_id": 36061, "name": "COSMOS 2251 DEB", "group": "cosmos-2251-debris", "lat": -32.671682671861596, "lon": 164.97027433346196, "alt_km": 809.2116014461535, "timestamp": "2025-12-26T14:28:48.100259+00:00", "meta": {"OBJECT_NAME": "COSMOS 2251 DEB", "OBJECT_ID": "1993-036AXY", "EPOCH": "2025-12-26T05:06:50.998464", "MEAN_MOTION": 14.33730546, "ECCENTRICITY": 0.00369994, "INCLINATION": 74.0257, "RA_OF_ASC_NODE": 335.0992, "ARG_OF_PERICENTER": 58.9018, "MEAN_ANOMALY": 301.5755, "EPHEMERIS_TYPE": 0, "CLASSIFICATION_TYPE": "U", "NORAD_CAT_ID": 36061, "ELEMENT_SET_NO": 999, "REV_AT_EPOCH": 65297, "BSTAR": 0.00033911755, "MEAN_MOTION_DOT": 9.23e-06, "MEAN_MOTION_DDOT": 0}, "tle": {"line1": "1 36061U 93036AXY 25360.21309026  .00000923  00000+0  33912-3 0  9990", "line2": "2 36061  74.0257 335.0992 0036999  58.9018 301.5755 14.33730546652972"}}, "geometry": {"type": "Point", "coordinates": [164.97027433346196, -32.671682671861596]}}, {"type": "Feature", "properties": {"norad_id": 36073, "name": "COSMOS 2251 DEB", "group": "cosmos-2251-debris", "lat": 11.694211311551971, "lon": -59.451305936563855, "alt_km": 759.2046047925878, "timestamp": "2025-12-26T14:28:48.100270+00:00", "meta": {"OBJECT_NAME": "COSMOS 2251 DEB", "OBJECT_ID": "1993-036AYL", "EPOCH": "2025-12-18T03:58:06.481920", "MEAN_MOTION": 14.34959898, "ECCENTRICITY": 0.00240895, "INCLINATION": 74.0326, "RA_OF_ASC_NODE": 312.6126, "ARG_OF_PERICENTER": 19.0207, "MEAN_ANOMALY": 341.1839, "EPHEMERIS_TYPE": 0, "CLASSIFICATION_TYPE": "U", "NORAD_CAT_ID": 36073, "ELEMENT_SET_NO": 999, "REV_AT_EPOCH": 70285, "BSTAR": 0.0001893667, "MEAN_MOTION_DOT": 5.14e-06, "MEAN_MOTION_DDOT": 0}, "tle": {"line1": "1 36073U 93036AYL 25352.16535280  .00000514  00000+0  18937-3 0  9997", "line2": "2 36073  74.0326 312.6126 0024089  19.0207 341.1839 14.34959898702857"}}, "geometry": {"type": "Point", "coordinates": [-59.451305936563855, 11.694211311551971]}}, {"type": "Feature", "properties": {"norad_id": 36074, "name": "COSMOS 2251 DEB", "group": "cosmos-2251-debris", "lat": -46.226134865587596, "lon": 152.07737665267672, "alt_km": 782.0219263555919, "timestamp": "2025-12-26T14:28:48.100281+00:00", "meta": {"OBJECT_NAME": "COSMOS 2251 DEB", "OBJECT_ID": "1993-036AYM", "EPOCH": "2025-12-22T22:57:11.517120", "MEAN_MOTION": 14.43796912, "ECCENTRICITY": 0.0041956, "INCLINATION": 73.994, "RA_OF_ASC_NODE": 321.4388, "ARG_OF_PERICENTER": 50.2945, "MEAN_ANOMALY": 310.1898, "EPHEMERIS_TYPE": 0, "CLASSIFICATION_TYPE": "U", "NORAD_CAT_ID": 36074, "ELEMENT_SET_NO": 999, "REV_AT_EPOCH": 86057, "BSTAR": 0.001160749, "MEAN_MOTION_DOT": 3.969e-05, "MEAN_MOTION_DDOT": 0}, "tle": {"line1": "1 36074U 93036AYM 25356.95638330  .00003969  00000+0  11607-2 0  9992", "line2": "2 36074  73.9940 321.4388 0041956  50.2945 310.1898 14.43796912860575"}}, "geometry": {"type": "Point", "coordinates": [152.07737665267672, -46.226134865587596]}}, {"type": "Feature", "properties": {"norad_id": 36366, "name": "COSMOS 2251 DEB", "group": "cosmos-2251-debris", "lat": 8.858819986908983, "lon": -109.68207244181134, "alt_km": 788.029898011232, "timestamp": "2025-12-26T14:28:48.100291+00:00", "meta": {"OBJECT_NAME": "COSMOS 2251 DEB", "OBJECT_ID": "1993-036AYT", "EPOCH": "2025-12-21T17:11:32.767008", "MEAN_MOTION": 14.33460542, "ECCENTRICITY": 0.00902396, "INCLINATION": 74.0657, "RA_OF_ASC_NODE": 256.6822, "ARG_OF_PERICENTER": 283.124, "MEAN_ANOMALY": 75.9853, "EPHEMERIS_TYPE": 0, "CLASSIFICATION_TYPE": "U", "NORAD_CAT_ID": 36366, "ELEMENT_SET_NO": 999, "REV_AT_EPOCH": 86417, "BSTAR": 0.0010533139, "MEAN_MOTION_DOT": 3.019e-05, "MEAN_MOTION_DDOT": 0}, "tle": {"line1": "1 36366U 93036AYT 25355.71635147  .00003019  00000+0  10533-2 0  9995", "line2": "2 36366  74.0657 256.6822 0090239 283.1240  75.9853 14.33460542864174"}}, "geometry": {"type": "Point", "coordinates": [-109.68207244181134, 8.858819986908983]}}]}